STARLINK-2008
1 17603C 21009BH  21326.10624657  .00007418  00000-0  49708-3 0  3262
2 17603  53.0535 243.2538 0001741  71.3321  10.0442 15.06386288    19
